[
    {
        "Altitude(m)": 557738.6180968757,
        "Argument of Periapsis(deg)": 0.033114955553567506,
        "Eccentricity": 0.0,
        "Inclination(deg)": 53.0,
        "Latitude(deg)": 43.665291684940556,
        "Longitude(deg)": 156.68022883262068,
        "Mean Anomaly(deg)": 59.548964337887945,
        "RAAN(deg)": 214.9507168426401,
        "Satellite Name": "Starlink Shell 1 946",
        "Satellite Number": 946,
        "Semi-Major Axis(m)": 6931778.249405717,
        "Time(s)": 950
    },
    {
        "Altitude(m)": 557816.3801329916,
        "Argument of Periapsis(deg)": 0.03346353403307874,
        "Eccentricity": 0.0,
        "Inclination(deg)": 53.0,
        "Latitude(deg)": 44.013554482146574,
        "Longitude(deg)": 157.36052438773243,
        "Mean Anomaly(deg)": 60.175795541444664,
        "RAAN(deg)": 214.9501980725626,
        "Satellite Name": "Starlink Shell 1 946",
        "Satellite Number": 946,
        "Semi-Major Axis(m)": 6931778.249405717,
        "Time(s)": 960
    },
    {
        "Altitude(m)": 557893.3491902911,
        "Argument of Periapsis(deg)": 0.03381211251258998,
        "Eccentricity": 0.0,
        "Inclination(deg)": 53.0,
        "Latitude(deg)": 44.35718669224956,
        "Longitude(deg)": 158.049250212175,
        "Mean Anomaly(deg)": 60.80262674500136,
        "RAAN(deg)": 214.94967930248512,
        "Satellite Name": "Starlink Shell 1 946",
        "Satellite Number": 946,
        "Semi-Major Axis(m)": 6931778.249405717,
        "Time(s)": 970
    },
    {
        "Altitude(m)": 557969.4769244929,
        "Argument of Periapsis(deg)": 0.034160690992101214,
        "Eccentricity": 0.0,
        "Inclination(deg)": 53.0,
        "Latitude(deg)": 44.69607926575397,
        "Longitude(deg)": 158.7464910006425,
        "Mean Anomaly(deg)": 61.42945794855808,
        "RAAN(deg)": 214.94916053240766,
        "Satellite Name": "Starlink Shell 1 946",
        "Satellite Number": 946,
        "Semi-Major Axis(m)": 6931778.249405717,
        "Time(s)": 980
    },
    {
        "Altitude(m)": 558044.7156266479,
        "Argument of Periapsis(deg)": 0.034509269471612446,
        "Eccentricity": 0.0,
        "Inclination(deg)": 53.0,
        "Latitude(deg)": 45.03012147216288,
        "Longitude(deg)": 159.4523267312282,
        "Mean Anomaly(deg)": 62.0562891521148,
        "RAAN(deg)": 214.94864176233023,
        "Satellite Name": "Starlink Shell 1 946",
        "Satellite Number": 946,
        "Semi-Major Axis(m)": 6931778.249405717,
        "Time(s)": 990
    }
]